0 ARIANE 1 DEB
1 17199U 86019BB  13281.76688208  .00007006  00000-0  10825-2 0   162
2 17199 098.6516 186.0334 0043698 006.1030 060.5492 14.73008955410945
0 ARIANE 1 DEB
1 17199U 86019BB  13282.78010108  .00009503  00000-0  14637-2 0   173
2 17199 098.6515 187.1129 0043589 002.9917 033.4545 14.73035983411091
0 ARIANE 1 DEB
1 17199U 86019BB  13283.65631427  .00005977  00000-0  91636-3 0   180
2 17199 098.6518 188.0410 0043750 359.9019 000.2666 14.73033927411222
0 ARIANE 1 DEB
1 17199U 86019BB  13283.79983296  .00011944  00000-0  18361-2 0   183
2 17199 098.6516 188.1992 0043489 359.8580 040.9829 14.73051903411245
0 ARIANE 1 DEB
1 17199U 86019BB  13286.19371889  .00008871  00000-0  13656-2 0   209
2 17199 098.6521 190.7493 0043266 352.4463 135.7916 14.73093020411592
0 ARIANE 1 DEB
1 17199U 86019BB  13287.48078380  .00010249  00000-0  15756-2 0   218
2 17199 098.6524 192.1203 0043145 348.4922 121.2218 14.73107277411787
0 ARIANE 1 DEB
1 17199U 86019BB  13288.48618962  .00014623  00000-0  22412-2 0   223
2 17199 098.6527 193.1911 0043015 345.3784 053.0912 14.73138043411930
0 ARIANE 1 DEB
1 17199U 86019BB  13289.50752106  .00012550  00000-0  19245-2 0   234
2 17199 098.6528 194.2793 0042921 342.2150 069.5171 14.73160214412080
0 ARIANE 1 DEB
1 17199U 86019BB  13290.54013024  .00013955  00000-0  21377-2 0   249
2 17199 098.6527 195.3796 0042810 338.9749 145.8697 14.73179250412235
0 ARIANE 1 DEB
1 17199U 86019BB  13291.82057380  .00011753  00000-0  18015-2 0   254
2 17199 098.6526 196.7438 0042662 334.9743 096.6821 14.73207646412421
0 ARIANE 1 DEB
1 17199U 86019BB  13293.19600404  .00010913  00000-0  16727-2 0   263
2 17199 098.6522 198.2096 0042509 330.6433 191.4281 14.73235041412629
0 ARIANE 1 DEB
1 17199U 86019BB  13294.20850072  .00013090  00000-0  20033-2 0   279
2 17199 098.6520 199.2886 0042389 327.4620 161.3947 14.73252663412773
0 ARIANE 1 DEB
1 17199U 86019BB  13295.36484369  .00014361  00000-0  21956-2 0   287
2 17199 098.6519 200.5207 0042258 323.8108 174.3753 14.73274723412949
